[{"OBJECT_NAME":"STARLINK-11673 [DTC]","OBJECT_ID":"2025-124B","EPOCH":"2026-01-18T13:56:47.351040","MEAN_MOTION":15.70952164,"ECCENTRICITY":0.00022777,"INCLINATION":43.0004,"RA_OF_ASC_NODE":331.2513,"ARG_OF_PERICENTER":291.4461,"MEAN_ANOMALY":68.6163,"EPHEMERIS_TYPE":0,"CLASSIFICATION_TYPE":"U","NORAD_CAT_ID":64318,"ELEMENT_SET_NO":999,"REV_AT_EPOCH":3495,"BSTAR":0.0015439135,"MEAN_MOTION_DOT":0.00203546,"MEAN_MOTION_DDOT":0},{"OBJECT_NAME":"STARLINK-11671 [DTC]","OBJECT_ID":"2025-124C","EPOCH":"2026-01-18T21:19:17.779008","MEAN_MOTION":15.70842976,"ECCENTRICITY":0.00014081,"INCLINATION":43.0007,"RA_OF_ASC_NODE":329.2491,"ARG_OF_PERICENTER":267.5115,"MEAN_ANOMALY":92.5591,"EPHEMERIS_TYPE":0,"CLASSIFICATION_TYPE":"U","NORAD_CAT_ID":64319,"ELEMENT_SET_NO":999,"REV_AT_EPOCH":3500,"BSTAR":0.0013282757,"MEAN_MOTION_DOT":0.00173614,"MEAN_MOTION_DDOT":0},{"OBJECT_NAME":"STARLINK-11594 [DTC]","OBJECT_ID":"2025-124D","EPOCH":"2026-01-18T05:25:39.213120","MEAN_MOTION":15.7086614,"ECCENTRICITY":0.00018914,"INCLINATION":43.001,"RA_OF_ASC_NODE":333.7626,"ARG_OF_PERICENTER":271.3377,"MEAN_ANOMALY":88.7274,"EPHEMERIS_TYPE":0,"CLASSIFICATION_TYPE":"U","NORAD_CAT_ID":64320,"ELEMENT_SET_NO":999,"REV_AT_EPOCH":3489,"BSTAR":0.0011273487,"MEAN_MOTION_DOT":0.00146954,"MEAN_MOTION_DDOT":0},{"OBJECT_NAME":"STARLINK-11596 [DTC]","OBJECT_ID":"2025-124E","EPOCH":"2026-01-18T05:10:21.920736","MEAN_MOTION":15.70940969,"ECCENTRICITY":0.00031865,"INCLINATION":42.9993,"RA_OF_ASC_NODE":333.6783,"ARG_OF_PERICENTER":253.7643,"MEAN_ANOMALY":106.2874,"EPHEMERIS_TYPE":0,"CLASSIFICATION_TYPE":"U","NORAD_CAT_ID":64321,"ELEMENT_SET_NO":999,"REV_AT_EPOCH":3489,"BSTAR":0.0017754851,"MEAN_MOTION_DOT":0.00234944,"MEAN_MOTION_DDOT":0},{"OBJECT_NAME":"STARLINK-11747 [DTC]","OBJECT_ID":"2025-124F","EPOCH":"2026-01-18T21:42:13.897728","MEAN_MOTION":15.70905902,"ECCENTRICITY":0.00012453,"INCLINATION":42.9989,"RA_OF_ASC_NODE":329.3758,"ARG_OF_PERICENTER":216.0715,"MEAN_ANOMALY":144.0069,"EPHEMERIS_TYPE":0,"CLASSIFICATION_TYPE":"U","NORAD_CAT_ID":64322,"ELEMENT_SET_NO":999,"REV_AT_EPOCH":3500,"BSTAR":0.0014605311,"MEAN_MOTION_DOT":0.00191876,"MEAN_MOTION_DDOT":0},{"OBJECT_NAME":"STARLINK-11728 [DTC]","OBJECT_ID":"2025-124G","EPOCH":"2026-01-18T20:56:21.503904","MEAN_MOTION":15.70891058,"ECCENTRICITY":0.00021603,"INCLINATION":42.9997,"RA_OF_ASC_NODE":329.1188,"ARG_OF_PERICENTER":233.9011,"MEAN_ANOMALY":126.1657,"EPHEMERIS_TYPE":0,"CLASSIFICATION_TYPE":"U","NORAD_CAT_ID":64323,"ELEMENT_SET_NO":999,"REV_AT_EPOCH":3500,"BSTAR":0.0018155196,"MEAN_MOTION_DOT":0.00239873,"MEAN_MOTION_DDOT":0},{"OBJECT_NAME":"STARLINK-11696 [DTC]","OBJECT_ID":"2025-124H","EPOCH":"2026-01-18T21:11:38.688288","MEAN_MOTION":15.70890878,"ECCENTRICITY":0.00017947,"INCLINATION":43,"RA_OF_ASC_NODE":329.204,"ARG_OF_PERICENTER":280.1498,"MEAN_ANOMALY":79.9167,"EPHEMERIS_TYPE":0,"CLASSIFICATION_TYPE":"U","NORAD_CAT_ID":64324,"ELEMENT_SET_NO":999,"REV_AT_EPOCH":3500,"BSTAR":0.0007011177,"MEAN_MOTION_DOT":0.00090697,"MEAN_MOTION_DDOT":0},{"OBJECT_NAME":"STARLINK-11698 [DTC]","OBJECT_ID":"2025-124J","EPOCH":"2026-01-18T21:20:36.536928","MEAN_MOTION":15.71032389,"ECCENTRICITY":0.0002261,"INCLINATION":42.9998,"RA_OF_ASC_NODE":329.2534,"ARG_OF_PERICENTER":226.6225,"MEAN_ANOMALY":133.4455,"EPHEMERIS_TYPE":0,"CLASSIFICATION_TYPE":"U","NORAD_CAT_ID":64325,"ELEMENT_SET_NO":999,"REV_AT_EPOCH":3500,"BSTAR":0.0024722221,"MEAN_MOTION_DOT":0.00332469,"MEAN_MOTION_DDOT":0},{"OBJECT_NAME":"STARLINK-11678 [DTC]","OBJECT_ID":"2025-124K","EPOCH":"2026-01-18T21:49:52.726656","MEAN_MOTION":15.70992219,"ECCENTRICITY":0.00047988,"INCLINATION":42.9988,"RA_OF_ASC_NODE":329.4162,"ARG_OF_PERICENTER":283.0441,"MEAN_ANOMALY":76.9891,"EPHEMERIS_TYPE":0,"CLASSIFICATION_TYPE":"U","NORAD_CAT_ID":64326,"ELEMENT_SET_NO":999,"REV_AT_EPOCH":3500,"BSTAR":0.0014958384,"MEAN_MOTION_DOT":0.00197452,"MEAN_MOTION_DDOT":0},{"OBJECT_NAME":"STARLINK-11674 [DTC]","OBJECT_ID":"2025-124L","EPOCH":"2026-01-18T21:04:00.296544","MEAN_MOTION":15.70868267,"ECCENTRICITY":0.00016199,"INCLINATION":42.9995,"RA_OF_ASC_NODE":329.1608,"ARG_OF_PERICENTER":253.4608,"MEAN_ANOMALY":106.6082,"EPHEMERIS_TYPE":0,"CLASSIFICATION_TYPE":"U","NORAD_CAT_ID":64327,"ELEMENT_SET_NO":999,"REV_AT_EPOCH":3500,"BSTAR":0.0014008948,"MEAN_MOTION_DOT":0.00183548,"MEAN_MOTION_DDOT":0},{"OBJECT_NAME":"STARLINK-11707 [DTC]","OBJECT_ID":"2025-124M","EPOCH":"2026-01-18T21:26:56.613984","MEAN_MOTION":15.70915646,"ECCENTRICITY":0.00019135,"INCLINATION":42.9997,"RA_OF_ASC_NODE":329.2878,"ARG_OF_PERICENTER":221.3168,"MEAN_ANOMALY":138.7555,"EPHEMERIS_TYPE":0,"CLASSIFICATION_TYPE":"U","NORAD_CAT_ID":64328,"ELEMENT_SET_NO":999,"REV_AT_EPOCH":3500,"BSTAR":0.0023637675,"MEAN_MOTION_DOT":0.00315662,"MEAN_MOTION_DDOT":0},{"OBJECT_NAME":"STARLINK-11734 [DTC]","OBJECT_ID":"2025-124N","EPOCH":"2026-01-18T05:33:05.367168","MEAN_MOTION":15.70924659,"ECCENTRICITY":0.00036774,"INCLINATION":43.0049,"RA_OF_ASC_NODE":332.9068,"ARG_OF_PERICENTER":279.9848,"MEAN_ANOMALY":80.0604,"EPHEMERIS_TYPE":0,"CLASSIFICATION_TYPE":"U","NORAD_CAT_ID":64329,"ELEMENT_SET_NO":999,"REV_AT_EPOCH":3490,"BSTAR":0.0014554148,"MEAN_MOTION_DOT":0.00191377,"MEAN_MOTION_DDOT":0},{"OBJECT_NAME":"STARLINK-34252","OBJECT_ID":"2025-124P","EPOCH":"2026-01-18T18:26:58.081920","MEAN_MOTION":15.27590864,"ECCENTRICITY":0.00010882,"INCLINATION":43.0029,"RA_OF_ASC_NODE":43.8165,"ARG_OF_PERICENTER":291.797,"MEAN_ANOMALY":68.2766,"EPHEMERIS_TYPE":0,"CLASSIFICATION_TYPE":"U","NORAD_CAT_ID":64330,"ELEMENT_SET_NO":999,"REV_AT_EPOCH":3414,"BSTAR":0.00043233867,"MEAN_MOTION_DOT":0.00011658,"MEAN_MOTION_DDOT":0},{"OBJECT_NAME":"STARLINK-34050","OBJECT_ID":"2025-124Q","EPOCH":"2026-01-18T18:12:09.989280","MEAN_MOTION":15.27580006,"ECCENTRICITY":0.00012883,"INCLINATION":42.9993,"RA_OF_ASC_NODE":43.7368,"ARG_OF_PERICENTER":281.1542,"MEAN_ANOMALY":78.9165,"EPHEMERIS_TYPE":0,"CLASSIFICATION_TYPE":"U","NORAD_CAT_ID":64331,"ELEMENT_SET_NO":999,"REV_AT_EPOCH":3520,"BSTAR":0.00088094539,"MEAN_MOTION_DOT":0.00024059,"MEAN_MOTION_DDOT":0},{"OBJECT_NAME":"STARLINK-33782","OBJECT_ID":"2025-124R","EPOCH":"2026-01-18T08:30:34.098048","MEAN_MOTION":15.27581292,"ECCENTRICITY":0.00013919,"INCLINATION":42.9988,"RA_OF_ASC_NODE":45.8584,"ARG_OF_PERICENTER":261.0493,"MEAN_ANOMALY":99.0202,"EPHEMERIS_TYPE":0,"CLASSIFICATION_TYPE":"U","NORAD_CAT_ID":64332,"ELEMENT_SET_NO":999,"REV_AT_EPOCH":3408,"BSTAR":0.00095556486,"MEAN_MOTION_DOT":0.00026127,"MEAN_MOTION_DDOT":0},{"OBJECT_NAME":"STARLINK-34207","OBJECT_ID":"2025-124S","EPOCH":"2026-01-18T18:21:25.147296","MEAN_MOTION":15.27567515,"ECCENTRICITY":9.343e-5,"INCLINATION":43.0007,"RA_OF_ASC_NODE":43.786,"ARG_OF_PERICENTER":282.0312,"MEAN_ANOMALY":78.0435,"EPHEMERIS_TYPE":0,"CLASSIFICATION_TYPE":"U","NORAD_CAT_ID":64333,"ELEMENT_SET_NO":999,"REV_AT_EPOCH":3414,"BSTAR":0.00092904569,"MEAN_MOTION_DOT":0.00025381,"MEAN_MOTION_DDOT":0}]
