STARLINK-11673 [DTC]    
1 64318U 25124B   26018.58110360  .00203546  00000+0  15439-2 0  9990
2 64318  43.0004 331.2513 0002277 291.4461  68.6163 15.70952164 34959
STARLINK-11671 [DTC]    
1 64319U 25124C   26018.88840022  .00173614  00000+0  13283-2 0  9996
2 64319  43.0007 329.2491 0001408 267.5115  92.5591 15.70842976 35007
STARLINK-11594 [DTC]    
1 64320U 25124D   26018.22614830  .00146954  00000+0  11273-2 0  9996
2 64320  43.0010 333.7626 0001891 271.3377  88.7274 15.70866140 34892
STARLINK-11596 [DTC]    
1 64321U 25124E   26018.21553149  .00234944  00000+0  17755-2 0  9999
2 64321  42.9993 333.6783 0003186 253.7643 106.2874 15.70940969 34897
STARLINK-11747 [DTC]    
1 64322U 25124F   26018.90432752  .00191876  00000+0  14605-2 0  9999
2 64322  42.9989 329.3758 0001245 216.0715 144.0069 15.70905902 35001
STARLINK-11728 [DTC]    
1 64323U 25124G   26018.87247111  .00239873  00000+0  18155-2 0  9993
2 64323  42.9997 329.1188 0002160 233.9011 126.1657 15.70891058 35000
STARLINK-11696 [DTC]    
1 64324U 25124H   26018.88308667  .00090697  00000+0  70112-3 0  9990
2 64324  43.0000 329.2040 0001794 280.1498  79.9167 15.70890878 35001
STARLINK-11698 [DTC]    
1 64325U 25124J   26018.88931177  .00332469  00000+0  24722-2 0  9990
2 64325  42.9998 329.2534 0002261 226.6225 133.4455 15.71032389 35009
STARLINK-11678 [DTC]    
1 64326U 25124K   26018.90963804  .00197452  00000+0  14958-2 0  9997
2 64326  42.9988 329.4162 0004798 283.0441  76.9891 15.70992219 35003
STARLINK-11674 [DTC]    
1 64327U 25124L   26018.87778121  .00183548  00000+0  14009-2 0  9998
2 64327  42.9995 329.1608 0001619 253.4608 106.6082 15.70868267 35007
STARLINK-11707 [DTC]    
1 64328U 25124M   26018.89371081  .00315662  00000+0  23638-2 0  9997
2 64328  42.9997 329.2878 0001913 221.3168 138.7555 15.70915646 35007
STARLINK-11734 [DTC]    
1 64329U 25124N   26018.23131212  .00191377  00000+0  14554-2 0  9998
2 64329  43.0049 332.9068 0003677 279.9848  80.0604 15.70924659 34909
STARLINK-34252          
1 64330U 25124P   26018.76872780  .00011658  00000+0  43234-3 0  9991
2 64330  43.0029  43.8165 0001088 291.7970  68.2766 15.27590864 34149
STARLINK-34050          
1 64331U 25124Q   26018.75844895  .00024059  00000+0  88095-3 0  9990
2 64331  42.9993  43.7368 0001288 281.1542  78.9165 15.27580006 35208
STARLINK-33782          
1 64332U 25124R   26018.35456132  .00026127  00000+0  95556-3 0  9998
2 64332  42.9988  45.8584 0001391 261.0493  99.0202 15.27581292 34082
STARLINK-34207          
1 64333U 25124S   26018.76487439  .00025381  00000+0  92905-3 0  9994
2 64333  43.0007  43.7860 0000934 282.0312  78.0435 15.27567515 34140
